{"type": "FeatureCollection", "features": [ {"type": "Feature", "properties": {"norad_id": 43262, "name": "GAOFEN-1 04", "group": "resource", "lat": -10.882605444327963, "lon": -141.48991577330148, "alt_km": 645.4637511971468, "timestamp": "2025-12-08T05:48:08.705242+00:00", "meta": {"OBJECT_NAME": "GAOFEN-1 04", "OBJECT_ID": "2018-031D", "EPOCH": "2025-12-07T22:26:04.555680", "MEAN_MOTION": 14.76433906, "ECCENTRICITY": 0.00011751, "INCLINATION": 98.0815, "RA_OF_ASC_NODE": 39.7683, "ARG_OF_PERICENTER": 59.8977, "MEAN_ANOMALY": 300.2349, "EPHEMERIS_TYPE": 0, "CLASSIFICATION_TYPE": "U", "NORAD_CAT_ID": 43262, "ELEMENT_SET_NO": 999, "REV_AT_EPOCH": 41446, "BSTAR": 0.00023107096, "MEAN_MOTION_DOT": 1.555e-05, "MEAN_MOTION_DDOT": 0}, "tle": {"line1": "1 43262U 18031D   25341.93477495  .00001555  00000+0  23107-3 0  9994", "line2": "2 43262  98.0815  39.7683 0001175  59.8977 300.2349 14.76433906414468"}}, "geometry": {"type": "Point", "coordinates": [-141.48991577330148, -10.882605444327963]}}, {"type": "Feature", "properties": {"norad_id": 43437, "name": "SENTINEL-3B", "group": "resource", "lat": 77.55331330081025, "lon": 4.0326334339501555, "alt_km": 794.3633517619446, "timestamp": "2025-12-08T05:48:08.705252+00:00", "meta": {"OBJECT_NAME": "SENTINEL-3B", "OBJECT_ID": "2018-039A", "EPOCH": "2025-12-07T22:41:30.426720", "MEAN_MOTION": 14.26739936, "ECCENTRICITY": 0.00015247, "INCLINATION": 98.6271, "RA_OF_ASC_NODE": 47.1992, "ARG_OF_PERICENTER": 107.6411, "MEAN_ANOMALY": 252.4936, "EPHEMERIS_TYPE": 0, "CLASSIFICATION_TYPE": "U", "NORAD_CAT_ID": 43437, "ELEMENT_SET_NO": 999, "REV_AT_EPOCH": 39685, "BSTAR": 0.00012455305, "MEAN_MOTION_DOT": 2.58e-06, "MEAN_MOTION_DDOT": 0}, "tle": {"line1": "1 43437U 18039A   25341.94549105  .00000258  00000+0  12455-3 0  9998", "line2": "2 43437  98.6271  47.1992 0001524 107.6411 252.4936 14.26739936396852"}}, "geometry": {"type": "Point", "coordinates": [4.0326334339501555, 77.55331330081025]}}, {"type": "Feature", "properties": {"norad_id": 43461, "name": "GAOFEN-5 01", "group": "resource", "lat": -64.45825653176337, "lon": 107.04702640231783, "alt_km": 699.3994748564728, "timestamp": "2025-12-08T05:48:08.705262+00:00", "meta": {"OBJECT_NAME": "GAOFEN-5 01", "OBJECT_ID": "2018-043A", "EPOCH": "2025-12-07T22:06:10.768608", "MEAN_MOTION": 14.60401449, "ECCENTRICITY": 0.00012884, "INCLINATION": 98.4318, "RA_OF_ASC_NODE": 304.8042, "ARG_OF_PERICENTER": 357.5447, "MEAN_ANOMALY": 2.5746, "EPHEMERIS_TYPE": 0, "CLASSIFICATION_TYPE": "U", "NORAD_CAT_ID": 43461, "ELEMENT_SET_NO": 999, "REV_AT_EPOCH": 40377, "BSTAR": 0.00018980945, "MEAN_MOTION_DOT": 8.7e-06, "MEAN_MOTION_DDOT": 0}, "tle": {"line1": "1 43461U 18043A   25341.92095797  .00000870  00000+0  18981-3 0  9991", "line2": "2 43461  98.4318 304.8042 0001288 357.5447   2.5746 14.60401449403776"}}, "geometry": {"type": "Point", "coordinates": [107.04702640231783, -64.45825653176337]}}, {"type": "Feature", "properties": {"norad_id": 43484, "name": "GAOFEN-6", "group": "resource", "lat": -19.820983887781065, "lon": 49.492974084718924, "alt_km": 646.529039321952, "timestamp": "2025-12-08T05:48:08.705272+00:00", "meta": {"OBJECT_NAME": "GAOFEN-6", "OBJECT_ID": "2018-048A", "EPOCH": "2025-12-07T23:23:14.111232", "MEAN_MOTION": 14.76552433, "ECCENTRICITY": 0.00132885, "INCLINATION": 97.8038, "RA_OF_ASC_NODE": 46.4013, "ARG_OF_PERICENTER": 77.8595, "MEAN_ANOMALY": 282.4103, "EPHEMERIS_TYPE": 0, "CLASSIFICATION_TYPE": "U", "NORAD_CAT_ID": 43484, "ELEMENT_SET_NO": 999, "REV_AT_EPOCH": 40517, "BSTAR": 0.00020659615, "MEAN_MOTION_DOT": 1.393e-05, "MEAN_MOTION_DDOT": 0}, "tle": {"line1": "1 43484U 18048A   25341.97446888  .00001393  00000+0  20660-3 0  9995", "line2": "2 43484  97.8038  46.4013 0013288  77.8595 282.4103 14.76552433405178"}}, "geometry": {"type": "Point", "coordinates": [49.492974084718924, -19.820983887781065]}}, {"type": "Feature", "properties": {"norad_id": 43585, "name": "GAOFEN-11 01", "group": "resource", "lat": 53.23351037065398, "lon": 35.53355499033713, "alt_km": 414.0775465565821, "timestamp": "2025-12-08T05:48:08.705283+00:00", "meta": {"OBJECT_NAME": "GAOFEN-11 01", "OBJECT_ID": "2018-063A", "EPOCH": "2025-12-07T23:22:09.808896", "MEAN_MOTION": 15.49020478, "ECCENTRICITY": 0.0004629, "INCLINATION": 97.1563, "RA_OF_ASC_NODE": 44.9485, "ARG_OF_PERICENTER": 334.9855, "MEAN_ANOMALY": 25.1172, "EPHEMERIS_TYPE": 0, "CLASSIFICATION_TYPE": "U", "NORAD_CAT_ID": 43585, "ELEMENT_SET_NO": 999, "REV_AT_EPOCH": 41068, "BSTAR": 0.00034823976, "MEAN_MOTION_DOT": 0.00018792, "MEAN_MOTION_DDOT": 0}, "tle": {"line1": "1 43585U 18063A   25341.97372464  .00018792  00000+0  34824-3 0  9990", "line2": "2 43585  97.1563  44.9485 0004629 334.9855  25.1172 15.49020478410687"}}, "geometry": {"type": "Point", "coordinates": [35.53355499033713, 53.23351037065398]}}, {"type": "Feature", "properties": {"norad_id": 43613, "name": "ICESAT-2", "group": "resource", "lat": 51.911759289073295, "lon": 62.08442078394602, "alt_km": 475.2908291007143, "timestamp": "2025-12-08T05:48:08.705293+00:00", "meta": {"OBJECT_NAME": "ICESAT-2", "OBJECT_ID": "2018-070A", "EPOCH": "2025-12-07T21:23:11.541984", "MEAN_MOTION": 15.28215161, "ECCENTRICITY": 0.00019774, "INCLINATION": 92.0046, "RA_OF_ASC_NODE": 239.4285, "ARG_OF_PERICENTER": 161.2885, "MEAN_ANOMALY": 198.8438, "EPHEMERIS_TYPE": 0, "CLASSIFICATION_TYPE": "U", "NORAD_CAT_ID": 43613, "ELEMENT_SET_NO": 999, "REV_AT_EPOCH": 40324, "BSTAR": 0.00057423926, "MEAN_MOTION_DOT": 0.00015794, "MEAN_MOTION_DDOT": 0}, "tle": {"line1": "1 43613U 18070A   25341.89110581  .00015794  00000+0  57424-3 0  9991", "line2": "2 43613  92.0046 239.4285 0001977 161.2885 198.8438 15.28215161403244"}}, "geometry": {"type": "Point", "coordinates": [62.08442078394602, 51.911759289073295]}}, {"type": "Feature", "properties": {"norad_id": 43719, "name": "HYSIS", "group": "resource", "lat": -18.025757737842266, "lon": 47.867903540814034, "alt_km": 638.5078922343382, "timestamp": "2025-12-08T05:48:08.705303+00:00", "meta": {"OBJECT_NAME": "HYSIS", "OBJECT_ID": "2018-096A", "EPOCH": "2025-12-07T21:45:50.410944", "MEAN_MOTION": 14.78624744, "ECCENTRICITY": 0.00015295, "INCLINATION": 98.0101, "RA_OF_ASC_NODE": 44.9082, "ARG_OF_PERICENTER": 62.917, "MEAN_ANOMALY": 297.2197, "EPHEMERIS_TYPE": 0, "CLASSIFICATION_TYPE": "U", "NORAD_CAT_ID": 43719, "ELEMENT_SET_NO": 999, "REV_AT_EPOCH": 37915, "BSTAR": 0.00028235996, "MEAN_MOTION_DOT": 2.015e-05, "MEAN_MOTION_DDOT": 0}, "tle": {"line1": "1 43719U 18096A   25341.90683346  .00002015  00000+0  28236-3 0  9993", "line2": "2 43719  98.0101  44.9082 0001529  62.9170 297.2197 14.78624744379153"}}, "geometry": {"type": "Point", "coordinates": [47.867903540814034, -18.025757737842266]}}, {"type": "Feature", "properties": {"norad_id": 43783, "name": "KAZSTSAT", "group": "resource", "lat": -62.539733798810175, "lon": -176.97461278676317, "alt_km": 577.2989907067949, "timestamp": "2025-12-08T05:48:08.705313+00:00", "meta": {"OBJECT_NAME": "KAZSTSAT", "OBJECT_ID": "2018-099AB", "EPOCH": "2025-12-07T15:54:20.758464", "MEAN_MOTION": 14.99329446, "ECCENTRICITY": 0.00061989, "INCLINATION": 97.4554, "RA_OF_ASC_NODE": 17.0659, "ARG_OF_PERICENTER": 350.6827, "MEAN_ANOMALY": 9.4281, "EPHEMERIS_TYPE": 0, "CLASSIFICATION_TYPE": "U", "NORAD_CAT_ID": 43783, "ELEMENT_SET_NO": 999, "REV_AT_EPOCH": 38260, "BSTAR": 0.00025694618, "MEAN_MOTION_DOT": 3.085e-05, "MEAN_MOTION_DDOT": 0}, "tle": {"line1": "1 43783U 18099AB  25341.66274026  .00003085  00000+0  25695-3 0  9995", "line2": "2 43783  97.4554  17.0659 0006198 350.6827   9.4281 14.99329446382608"}}, "geometry": {"type": "Point", "coordinates": [-176.97461278676317, -62.539733798810175]}}, {"type": "Feature", "properties": {"norad_id": 43831, "name": "SAUDISAT 5A", "group": "resource", "lat": -51.07817056638963, "lon": -146.6595786824597, "alt_km": 502.43270429929726, "timestamp": "2025-12-08T05:48:08.705323+00:00", "meta": {"OBJECT_NAME": "SAUDISAT 5A", "OBJECT_ID": "2018-102A", "EPOCH": "2025-12-07T22:29:40.083936", "MEAN_MOTION": 15.25566602, "ECCENTRICITY": 0.00118172, "INCLINATION": 97.3355, "RA_OF_ASC_NODE": 42.2213, "ARG_OF_PERICENTER": 90.8122, "MEAN_ANOMALY": 269.447, "EPHEMERIS_TYPE": 0, "CLASSIFICATION_TYPE": "U", "NORAD_CAT_ID": 43831, "ELEMENT_SET_NO": 999, "REV_AT_EPOCH": 38649, "BSTAR": 0.0003391575, "MEAN_MOTION_DOT": 8.555e-05, "MEAN_MOTION_DDOT": 0}, "tle": {"line1": "1 43831U 18102A   25341.93726949  .00008555  00000+0  33916-3 0  9992", "line2": "2 43831  97.3355  42.2213 0011817  90.8122 269.4470 15.25566602386497"}}, "geometry": {"type": "Point", "coordinates": [-146.6595786824597, -51.07817056638963]}}, {"type": "Feature", "properties": {"norad_id": 43833, "name": "SAUDISAT 5B", "group": "resource", "lat": -79.15997680959107, "lon": 87.59903930507127, "alt_km": 503.9269288819296, "timestamp": "2025-12-08T05:48:08.705333+00:00", "meta": {"OBJECT_NAME": "SAUDISAT 5B", "OBJECT_ID": "2018-102C", "EPOCH": "2025-12-07T22:17:34.157184", "MEAN_MOTION": 15.25921547, "ECCENTRICITY": 0.00125297, "INCLINATION": 97.345, "RA_OF_ASC_NODE": 44.9429, "ARG_OF_PERICENTER": 93.3575, "MEAN_ANOMALY": 266.9097, "EPHEMERIS_TYPE": 0, "CLASSIFICATION_TYPE": "U", "NORAD_CAT_ID": 43833, "ELEMENT_SET_NO": 999, "REV_AT_EPOCH": 38660, "BSTAR": 0.00033501048, "MEAN_MOTION_DOT": 8.543e-05, "MEAN_MOTION_DDOT": 0}, "tle": {"line1": "1 43833U 18102C   25341.92886756  .00008543  00000+0  33501-3 0  9993", "line2": "2 43833  97.3450  44.9429 0012529  93.3575 266.9097 15.25921547386607"}}, "geometry": {"type": "Point", "coordinates": [87.59903930507127, -79.15997680959107]}}]}